{
    "links": {
        "self": "http://www.neowsapp.com/rest/v1/neo/3835952?api_key=iIulBulltgU6a56xZRHN4H3l9WmuAYTsLGpBGhQ2"
    },
    "id": "3835952",
    "neo_reference_id": "3835952",
    "name": "(2018 VS)",
    "designation": "2018 VS",
    "nasa_jpl_url": "http://ssd.jpl.nasa.gov/sbdb.cgi?sstr=3835952",
    "absolute_magnitude_h": 24.6,
    "estimated_diameter": {
        "kilometers": {
            "estimated_diameter_min": 0.0319561887,
            "estimated_diameter_max": 0.0714562102
        },
        "meters": {
            "estimated_diameter_min": 31.9561886721,
            "estimated_diameter_max": 71.4562101727
        },
        "miles": {
            "estimated_diameter_min": 0.0198566489,
            "estimated_diameter_max": 0.0444008168
        },
        "feet": {
            "estimated_diameter_min": 104.8431420431,
            "estimated_diameter_max": 234.436392583
        }
    },
    "is_potentially_hazardous_asteroid": false,
    "close_approach_data": [
        {
            "close_approach_date": "2018-11-16",
            "close_approach_date_full": "2018-Nov-16 08:07",
            "epoch_date_close_approach": 1542355620000,
            "relative_velocity": {
                "kilometers_per_second": "6.8906543483",
                "kilometers_per_hour": "24806.3556538391",
                "miles_per_hour": "15413.7047116869"
            },
            "miss_distance": {
                "astronomical": "0.0646835418",
                "lunar": "25.1618977602",
                "kilometers": "9676520.077335966",
                "miles": "6012710.7629536908"
            },
            "orbiting_body": "Earth"
        }
    ],
    "orbital_data": {
        "orbit_id": "11",
        "orbit_determination_date": "2020-10-24 07:44:55",
        "first_observation_date": "2018-11-01",
        "last_observation_date": "2018-12-04",
        "data_arc_in_days": 33,
        "observations_used": 65,
        "orbit_uncertainty": "6",
        "minimum_orbit_intersection": ".0561552",
        "jupiter_tisserand_invariant": "3.676",
        "epoch_osculation": "2459000.5",
        "eccentricity": ".4814327692095683",
        "semi_major_axis": "2.002858177761571",
        "inclination": "7.554933463061121",
        "ascending_node_longitude": "219.4275945985382",
        "orbital_period": "1035.317902734384",
        "perihelion_distance": "1.038616618907788",
        "perihelion_argument": "197.0715185243851",
        "aphelion_distance": "2.967099736615354",
        "perihelion_time": "2459477.818260982872",
        "mean_anomaly": "194.0272359823003",
        "mean_motion": ".3477192841437415",
        "equinox": "J2000",
        "orbit_class": {
            "orbit_class_type": "AMO",
            "orbit_class_description": "Near-Earth asteroid orbits similar to that of 1221 Amor",
            "orbit_class_range": "1.017 AU < q (perihelion) < 1.3 AU"
        }
    },
    "is_sentry_object": false
}